satname,norad_id,inclination_deg,eccentricity,mean_motion_rev_per_day,perigee_km,apogee_km,l1,l2
STARLINK-1567,46038,53.0909,0.0001224,15.30120705,474.61296094684894,476.2907194949339,1 46038U 20055M   26075.00002315  .01094800  00000+0  34310-1 0  9997,2 46038  53.0909  97.2987 0001224  93.6499 185.1321 15.30120705  5842
STARLINK-1569,46039,53.1366,0.0001873,15.25871305,486.8842581812578,489.456376902408,1 46039U 20055N   26075.00002315  .00121157  00000+0  46056-2 0  9994,2 46039  53.1366  97.3343 0001873 103.2223 133.1885 15.25871305  5842
STARLINK-1582,46043,53.1491,0.000205,15.28944384,477.56097167191183,480.3723841798619,1 46043U 20055S   26075.00002315  .00141370  00000+0  48800-2 0  9997,2 46043  53.1491  97.3688 0002050  85.5444  90.5479 15.28944384  5748
STARLINK-1591,46045,53.1327,0.0001337,15.24909197,490.1396998431137,491.9765226158552,1 46045U 20055U   26075.00002315  .00088698  00000+0  34894-2 0  9990,2 46045  53.1327  97.2892 0001337  79.5732   1.5529 15.24909197  5842
STARLINK-1524,46047,53.1581,0.0001335,15.3018667,474.33994287077167,476.16979850024563,1 46047U 20055W   26074.72872013  .00000079  00000+0  14789-4 0  9990,2 46047  53.1581  85.7878 0001335  96.0065 264.1088 15.30186670309993
STARLINK-1527,46048,53.1594,0.0001701,15.30210433,474.0181686506321,476.34966842711947,1 46048U 20055X   26074.73503009  .00002432  00000+0  94194-4 0  9991,2 46048  53.1594  85.8567 0001701  61.9773 298.1400 15.30210433309976
STARLINK-1540,46051,53.1602,0.0001638,15.3018812,474.1279563081862,476.3731260666791,1 46051U 20055AA  26074.75820498 -.00000839  00000+0 -16215-4 0  9990,2 46051  53.1602  85.6526 0001638  98.3764 261.7423 15.30188120310011
STARLINK-1541,46052,53.1601,0.0001463,15.3019182,474.2368445526681,476.24214251467583,1 46052U 20055AB  26074.74766747 -.00000585  00000+0 -76250-5 0  9990,2 46052  53.1601  85.7464 0001463  84.7817 275.3351 15.30191820309972
STARLINK-1543,46053,53.1613,0.0001704,15.30199463,474.0488613391526,476.38448427084495,1 46053U 20055AC  26074.75398682  .00000284  00000+0  21728-4 0  9994,2 46053  53.1613  85.7423 0001704  92.3480 267.7716 15.30199463310007
STARLINK-1548,46054,53.1602,0.0001262,15.30188051,474.3858496779703,476.1156447453668,1 46054U 20055AD  26074.76137186 -.00000993  00000+0 -21399-4 0  9999,2 46054  53.1602  85.7093 0001262  92.2825 267.8320 15.30188051310003
STARLINK-1554,46055,53.1613,0.0001379,15.30192169,474.29337099873464,476.1835319482507,1 46055U 20055AE  26074.75928470 -.00000397  00000+0 -12672-5 0  9996,2 46055  53.1613  85.8427 0001379  97.6452 262.4705 15.30192169310005
STARLINK-1564,46058,53.1599,0.0001243,15.30187686,474.39996081783374,476.1037132827232,1 46058U 20055AH  26074.75723286 -.00000777  00000+0 -14133-4 0  9992,2 46058  53.1599  86.1839 0001243 100.7823 259.3317 15.30187686309998
STARLINK-1570,46059,53.1587,0.0001377,15.30218371,474.2165184466485,476.10391650034035,1 46059U 20055AJ  26074.72132369  .00006247  00000+0  22273-3 0  9995,2 46059  53.1587  85.8941 0001377  88.5951 271.5208 15.30218371309956
STARLINK-1572,46060,53.1582,0.0001678,15.29938425,474.8460729434646,477.14632004420855,1 46060U 20055AK  26074.73823844  .00107612  00000+0  36223-2 0  9990,2 46060  53.1582  86.0234 0001678  87.2963 272.8230 15.29938425309961
STARLINK-1573,46061,53.1597,0.0001308,15.30204575,474.30499266406787,476.0978259919475,1 46061U 20055AL  26074.44427426  .00003833  00000+0  14145-3 0  9995,2 46061  53.1597  87.1311 0001308  97.4666 262.6484 15.30204575309950
STARLINK-1577,46063,53.1588,0.0001393,15.30161113,474.3764933331877,476.28586956853997,1 46063U 20055AN  26074.73187188 -.00009851  00000+0 -32130-3 0  9999,2 46063  53.1588  85.7677 0001393  78.4279 281.6878 15.30161113309996
STARLINK-1583,46064,53.1605,0.0001381,15.30201386,474.2644837269936,476.157378425557,1 46064U 20055AP  26074.44110585  .00000557  00000+0  30944-4 0  9999,2 46064  53.1605  87.1496 0001381  96.3719 263.7439 15.30201386309943
STARLINK-1525,46066,53.0548,0.000157,15.20524446,503.17707919229633,505.33815110145133,1 46066U 20055AR  26075.00002315  .00096946  00000+0  43342-2 0  9996,2 46066  53.0548  67.6477 0001570 119.1314 167.0962 15.20524446  5895
STARLINK-1536,46070,53.0557,0.0001204,15.06404684,546.3633919521508,548.0310124280377,1 46070U 20055AV  26074.72130261 -.00000043  00000+0  15969-4 0  9991,2 46070  53.0557  69.5419 0001204  85.6159 274.4967 15.06404684310224
STARLINK-1542,46073,53.0559,0.0001363,15.06401423,546.2632722376575,548.1511210656645,1 46073U 20055AY  26074.71395717  .00001073  00000+0  90901-4 0  9994,2 46073  53.0559  69.5729 0001363  98.2288 261.8856 15.06401423310216
STARLINK-1549,46074,53.0547,0.0001247,15.06413105,546.307807335279,548.0349792485649,1 46074U 20055AZ  26074.23478288  .00003030  00000+0  22214-3 0  9993,2 46074  53.0547  71.7260 0001247  88.1921 271.9211 15.06413105310130
STARLINK-1551,46075,53.0568,0.0001608,15.06416898,546.0461807657857,548.2733562065305,1 46075U 20055BA  26074.26055483  .00002846  00000+0  20982-3 0  9999,2 46075  53.0568  71.6096 0001608  88.1653 271.9520 15.06416898310149
STARLINK-1552,46076,53.0543,0.0001393,15.06398352,546.2519070678172,548.1813105832362,1 46076U 20055BB  26074.68446397 -.00001203  00000+0 -61856-4 0  9998,2 46076  53.0543  69.7060 0001393  78.8903 281.2243 15.06398352310192
STARLINK-1559,46077,53.0274,0.0004637,15.3022871,471.9514882691001,478.30720748011936,1 46077U 20055BC  26074.63574659  .00042638  00000+0  14418-2 0  9992,2 46077  53.0274  46.2524 0004637  60.1608 299.9851 15.30228710310490
STARLINK-1566,46079,53.0541,0.0001324,15.06399062,546.2975162449729,548.1313493043726,1 46079U 20055BE  26074.70290990  .00002839  00000+0  20943-3 0  9995,2 46079  53.0541  69.6249 0001324  87.8432 272.2709 15.06399062310211
STARLINK-1568,46080,53.0634,0.0006274,15.47075267,421.018659864184,429.55559646020174,1 46080U 20055BF  26074.95498122  .00033689  00000+0  66009-3 0  9991,2 46080  53.0634   3.0621 0006274 136.3581 223.7923 15.47075267311163
STARLINK-1578,46082,53.0555,0.0001273,15.0639385,546.3488075957484,548.1120061375359,1 46082U 20055BH  26074.71764460  .00001236  00000+0  10185-3 0  9995,2 46082  53.0555  69.5583 0001273  86.6620 273.4514 15.06393850310215
STARLINK-1579,46083,53.0554,0.0001352,15.06387004,546.3150765826649,548.1877016030749,1 46083U 20055BJ  26074.95258559  .00000521  00000+0  53913-4 0  9992,2 46083  53.0554  68.4951 0001352  95.6370 264.4774 15.06387004310247
